[
    {
        "Altitude(m)": 559781.7128513444,
        "Argument of Periapsis(deg)": 0.026491964442854003,
        "Eccentricity": 0.0,
        "Inclination(deg)": 53.0,
        "Latitude(deg)": 52.62571707989034,
        "Longitude(deg)": 27.96542004010875,
        "Mean Anomaly(deg)": 96.73007147031035,
        "RAAN(deg)": 29.960573474112064,
        "Satellite Name": "Starlink Shell 1 135",
        "Satellite Number": 135,
        "Semi-Major Axis(m)": 6931778.249405717,
        "Time(s)": 760
    },
    {
        "Altitude(m)": 559758.7590394856,
        "Argument of Periapsis(deg)": 0.02684054292236524,
        "Eccentricity": 0.0,
        "Inclination(deg)": 53.0,
        "Latitude(deg)": 52.524533939466856,
        "Longitude(deg)": 28.939272822552734,
        "Mean Anomaly(deg)": 97.35690267386707,
        "RAAN(deg)": 29.960054704034594,
        "Satellite Name": "Starlink Shell 1 135",
        "Satellite Number": 135,
        "Semi-Major Axis(m)": 6931778.249405717,
        "Time(s)": 770
    },
    {
        "Altitude(m)": 559733.821597549,
        "Argument of Periapsis(deg)": 0.027189121401876473,
        "Eccentricity": 0.0,
        "Inclination(deg)": 53.0,
        "Latitude(deg)": 52.414687798074866,
        "Longitude(deg)": 29.90827611972144,
        "Mean Anomaly(deg)": 97.98373387742379,
        "RAAN(deg)": 29.959535933957124,
        "Satellite Name": "Starlink Shell 1 135",
        "Satellite Number": 135,
        "Semi-Major Axis(m)": 6931778.249405717,
        "Time(s)": 780
    },
    {
        "Altitude(m)": 559706.9155605721,
        "Argument of Periapsis(deg)": 0.02753769988138771,
        "Eccentricity": 0.0,
        "Inclination(deg)": 53.0,
        "Latitude(deg)": 52.296255162215516,
        "Longitude(deg)": 30.87208066129653,
        "Mean Anomaly(deg)": 98.61056508098049,
        "RAAN(deg)": 29.959017163879647,
        "Satellite Name": "Starlink Shell 1 135",
        "Satellite Number": 135,
        "Semi-Major Axis(m)": 6931778.249405717,
        "Time(s)": 790
    },
    {
        "Altitude(m)": 559678.0571554644,
        "Argument of Periapsis(deg)": 0.02788627836089895,
        "Eccentricity": 0.0,
        "Inclination(deg)": 53.0,
        "Latitude(deg)": 52.169317530920736,
        "Longitude(deg)": 31.83035058850463,
        "Mean Anomaly(deg)": 99.23739628453721,
        "RAAN(deg)": 29.958498393802177,
        "Satellite Name": "Starlink Shell 1 135",
        "Satellite Number": 135,
        "Semi-Major Axis(m)": 6931778.249405717,
        "Time(s)": 800
    },
    {
        "Altitude(m)": 559647.2637931068,
        "Argument of Periapsis(deg)": 0.02823485684041019,
        "Eccentricity": 0.0,
        "Inclination(deg)": 53.0,
        "Latitude(deg)": 52.03396113570881,
        "Longitude(deg)": 32.782764574269045,
        "Mean Anomaly(deg)": 99.86422748809396,
        "RAAN(deg)": 29.957979623724707,
        "Satellite Name": "Starlink Shell 1 135",
        "Satellite Number": 135,
        "Semi-Major Axis(m)": 6931778.249405717,
        "Time(s)": 810
    },
    {
        "Altitude(m)": 559614.5540598357,
        "Argument of Periapsis(deg)": 0.028583435319921423,
        "Eccentricity": 0.0,
        "Inclination(deg)": 53.0,
        "Latitude(deg)": 51.89027667154978,
        "Longitude(deg)": 33.729016857028945,
        "Mean Anomaly(deg)": 100.49105869165066,
        "RAAN(deg)": 29.957460853647227,
        "Satellite Name": "Starlink Shell 1 135",
        "Satellite Number": 135,
        "Semi-Major Axis(m)": 6931778.249405717,
        "Time(s)": 820
    },
    {
        "Altitude(m)": 559579.9477083576,
        "Argument of Periapsis(deg)": 0.028932013799432665,
        "Eccentricity": 0.0,
        "Inclination(deg)": 53.0,
        "Latitude(deg)": 51.73835902080722,
        "Longitude(deg)": 34.66881667382763,
        "Mean Anomaly(deg)": 101.11788989520737,
        "RAAN(deg)": 29.956942083569754,
        "Satellite Name": "Starlink Shell 1 135",
        "Satellite Number": 135,
        "Semi-Major Axis(m)": 6931778.249405717,
        "Time(s)": 830
    },
    {
        "Altitude(m)": 559543.4656481168,
        "Argument of Periapsis(deg)": 0.029280592278943897,
        "Eccentricity": 0.0,
        "Inclination(deg)": 53.0,
        "Latitude(deg)": 51.57830697189804,
        "Longitude(deg)": 35.60188911956935,
        "Mean Anomaly(deg)": 101.74472109876406,
        "RAAN(deg)": 29.956423313492284,
        "Satellite Name": "Starlink Shell 1 135",
        "Satellite Number": 135,
        "Semi-Major Axis(m)": 6931778.249405717,
        "Time(s)": 840
    },
    {
        "Altitude(m)": 559505.1299350488,
        "Argument of Periapsis(deg)": 0.029629170758455132,
        "Eccentricity": 0.0,
        "Inclination(deg)": 53.0,
        "Latitude(deg)": 51.41022293442821,
        "Longitude(deg)": 36.52797592092695,
        "Mean Anomaly(deg)": 102.37155230232077,
        "RAAN(deg)": 29.95590454341481,
        "Satellite Name": "Starlink Shell 1 135",
        "Satellite Number": 135,
        "Semi-Major Axis(m)": 6931778.249405717,
        "Time(s)": 850
    },
    {
        "Altitude(m)": 559464.9637607988,
        "Argument of Periapsis(deg)": 0.02997774923796637,
        "Eccentricity": 0.0,
        "Inclination(deg)": 53.0,
        "Latitude(deg)": 51.23421265249699,
        "Longitude(deg)": 37.446834446096055,
        "Mean Anomaly(deg)": 102.99838350587754,
        "RAAN(deg)": 29.955385773337337,
        "Satellite Name": "Starlink Shell 1 135",
        "Satellite Number": 135,
        "Semi-Major Axis(m)": 6931778.249405717,
        "Time(s)": 860
    },
    {
        "Altitude(m)": 559422.9914413953,
        "Argument of Periapsis(deg)": 0.030326327717477602,
        "Eccentricity": 0.0,
        "Inclination(deg)": 53.0,
        "Latitude(deg)": 51.05038491779694,
        "Longitude(deg)": 38.358239155652356,
        "Mean Anomaly(deg)": 103.6252147094342,
        "RAAN(deg)": 29.954867003259864,
        "Satellite Name": "Starlink Shell 1 135",
        "Satellite Number": 135,
        "Semi-Major Axis(m)": 6931778.249405717,
        "Time(s)": 870
    },
    {
        "Altitude(m)": 559379.2384053015,
        "Argument of Periapsis(deg)": 0.030674906196988847,
        "Eccentricity": 0.0,
        "Inclination(deg)": 53.0,
        "Latitude(deg)": 50.858851284037144,
        "Longitude(deg)": 39.26198045500487,
        "Mean Anomaly(deg)": 104.25204591299091,
        "RAAN(deg)": 29.95434823318239,
        "Satellite Name": "Starlink Shell 1 135",
        "Satellite Number": 135,
        "Semi-Major Axis(m)": 6931778.249405717,
        "Time(s)": 880
    },
    {
        "Altitude(m)": 559333.7311810036,
        "Argument of Periapsis(deg)": 0.031023484676500086,
        "Eccentricity": 0.0,
        "Inclination(deg)": 53.0,
        "Latitude(deg)": 50.659725784135546,
        "Longitude(deg)": 40.157865154780545,
        "Mean Anomaly(deg)": 104.87887711654764,
        "RAAN(deg)": 29.95382946310492,
        "Satellite Name": "Starlink Shell 1 135",
        "Satellite Number": 135,
        "Semi-Major Axis(m)": 6931778.249405717,
        "Time(s)": 890
    },
    {
        "Altitude(m)": 559286.4973839789,
        "Argument of Periapsis(deg)": 0.03137206315601132,
        "Eccentricity": 0.0,
        "Inclination(deg)": 53.0,
        "Latitude(deg)": 50.45312465151091,
        "Longitude(deg)": 41.045716862497066,
        "Mean Anomaly(deg)": 105.50570832010433,
        "RAAN(deg)": 29.953310693027447,
        "Satellite Name": "Starlink Shell 1 135",
        "Satellite Number": 135,
        "Semi-Major Axis(m)": 6931778.249405717,
        "Time(s)": 900
    },
    {
        "Altitude(m)": 559237.5657031689,
        "Argument of Periapsis(deg)": 0.03172064163552255,
        "Eccentricity": 0.0,
        "Inclination(deg)": 53.0,
        "Latitude(deg)": 50.239166046694734,
        "Longitude(deg)": 41.9253747973074,
        "Mean Anomaly(deg)": 106.1325395236611,
        "RAAN(deg)": 29.952791922949974,
        "Satellite Name": "Starlink Shell 1 135",
        "Satellite Number": 135,
        "Semi-Major Axis(m)": 6931778.249405717,
        "Time(s)": 910
    },
    {
        "Altitude(m)": 559186.9658868896,
        "Argument of Periapsis(deg)": 0.0320692201150338,
        "Eccentricity": 0.0,
        "Inclination(deg)": 53.0,
        "Latitude(deg)": 50.01796979037319,
        "Longitude(deg)": 42.7966940584836,
        "Mean Anomaly(deg)": 106.7593707272178,
        "RAAN(deg)": 29.952273152872504,
        "Satellite Name": "Starlink Shell 1 135",
        "Satellite Number": 135,
        "Semi-Major Axis(m)": 6931778.249405717,
        "Time(s)": 920
    },
    {
        "Altitude(m)": 559134.7287282431,
        "Argument of Periapsis(deg)": 0.032417798594545036,
        "Eccentricity": 0.0,
        "Inclination(deg)": 53.0,
        "Latitude(deg)": 49.78965710384416,
        "Longitude(deg)": 43.65954583985889,
        "Mean Anomaly(deg)": 107.38620193077449,
        "RAAN(deg)": 29.951754382795023,
        "Satellite Name": "Starlink Shell 1 135",
        "Satellite Number": 135,
        "Semi-Major Axis(m)": 6931778.249405717,
        "Time(s)": 930
    },
    {
        "Altitude(m)": 559080.8860499723,
        "Argument of Periapsis(deg)": 0.03276637707405627,
        "Eccentricity": 0.0,
        "Inclination(deg)": 53.0,
        "Latitude(deg)": 49.55435035775427,
        "Longitude(deg)": 44.51381608254937,
        "Mean Anomaly(deg)": 108.0130331343312,
        "RAAN(deg)": 29.951235612717554,
        "Satellite Name": "Starlink Shell 1 135",
        "Satellite Number": 135,
        "Semi-Major Axis(m)": 6931778.249405717,
        "Time(s)": 940
    }
]